{"type": "FeatureCollection", "features": [ {"type": "Feature", "properties": {"norad_id": 42969, "name": "SENTINEL-5P", "group": "resource", "lat": 55.766324136963895, "lon": -90.27824212302136, "alt_km": 821.0281213458265, "timestamp": "2025-12-10T05:46:13.454866+00:00", "meta": {"OBJECT_NAME": "SENTINEL-5P", "OBJECT_ID": "2017-064A", "EPOCH": "2025-12-09T19:21:14.019264", "MEAN_MOTION": 14.19516395, "ECCENTRICITY": 9.57e-05, "INCLINATION": 98.7781, "RA_OF_ASC_NODE": 282.4166, "ARG_OF_PERICENTER": 87.4658, "MEAN_ANOMALY": 272.6628, "EPHEMERIS_TYPE": 0, "CLASSIFICATION_TYPE": "U", "NORAD_CAT_ID": 42969, "ELEMENT_SET_NO": 999, "REV_AT_EPOCH": 42269, "BSTAR": 0.00010691, "MEAN_MOTION_DOT": 1.81e-06, "MEAN_MOTION_DDOT": 0}, "tle": {"line1": "1 42969U 17064A   25343.80641226  .00000181  00000+0  10691-3 0  9993", "line2": "2 42969  98.7781 282.4166 0000957  87.4658 272.6628 14.19516395422690"}}, "geometry": {"type": "Point", "coordinates": [-90.27824212302136, 55.766324136963895]}}, {"type": "Feature", "properties": {"norad_id": 42987, "name": "SKYSAT-C11", "group": "resource", "lat": 75.83754877940105, "lon": -27.260230158471977, "alt_km": 416.86731031956697, "timestamp": "2025-12-10T05:46:13.454876+00:00", "meta": {"OBJECT_NAME": "SKYSAT-C11", "OBJECT_ID": "2017-068A", "EPOCH": "2025-12-09T20:01:05.077056", "MEAN_MOTION": 15.47255568, "ECCENTRICITY": 9.58e-05, "INCLINATION": 97.4145, "RA_OF_ASC_NODE": 121.2541, "ARG_OF_PERICENTER": 107.8305, "MEAN_ANOMALY": 252.305, "EPHEMERIS_TYPE": 0, "CLASSIFICATION_TYPE": "U", "NORAD_CAT_ID": 42987, "ELEMENT_SET_NO": 999, "REV_AT_EPOCH": 45386, "BSTAR": 0.00060358, "MEAN_MOTION_DOT": 0.00030725, "MEAN_MOTION_DDOT": 0}, "tle": {"line1": "1 42987U 17068A   25343.83408654  .00030725  00000+0  60358-3 0  9998", "line2": "2 42987  97.4145 121.2541 0000958 107.8305 252.3050 15.47255568453865"}}, "geometry": {"type": "Point", "coordinates": [-27.260230158471977, 75.83754877940105]}}, {"type": "Feature", "properties": {"norad_id": 42988, "name": "SKYSAT-C10", "group": "resource", "lat": -39.297618307154536, "lon": 121.21256105464956, "alt_km": 479.6336538517007, "timestamp": "2025-12-10T05:46:13.454886+00:00", "meta": {"OBJECT_NAME": "SKYSAT-C10", "OBJECT_ID": "2017-068B", "EPOCH": "2025-12-09T20:32:15.859104", "MEAN_MOTION": 15.31963547, "ECCENTRICITY": 0.0005317, "INCLINATION": 97.426, "RA_OF_ASC_NODE": 114.6991, "ARG_OF_PERICENTER": 111.9212, "MEAN_ANOMALY": 248.2595, "EPHEMERIS_TYPE": 0, "CLASSIFICATION_TYPE": "U", "NORAD_CAT_ID": 42988, "ELEMENT_SET_NO": 999, "REV_AT_EPOCH": 45335, "BSTAR": 0.00053643, "MEAN_MOTION_DOT": 0.00016501, "MEAN_MOTION_DDOT": 0}, "tle": {"line1": "1 42988U 17068B   25343.85573911  .00016501  00000+0  53643-3 0  9995", "line2": "2 42988  97.4260 114.6991 0005317 111.9212 248.2595 15.31963547453354"}}, "geometry": {"type": "Point", "coordinates": [121.21256105464956, -39.297618307154536]}}, {"type": "Feature", "properties": {"norad_id": 42989, "name": "SKYSAT-C9", "group": "resource", "lat": 47.09514957155183, "lon": -57.46592939405553, "alt_km": 448.1517526827811, "timestamp": "2025-12-10T05:46:13.454896+00:00", "meta": {"OBJECT_NAME": "SKYSAT-C9", "OBJECT_ID": "2017-068C", "EPOCH": "2025-12-09T19:48:56.578176", "MEAN_MOTION": 15.35931853, "ECCENTRICITY": 0.0010695, "INCLINATION": 97.4189, "RA_OF_ASC_NODE": 114.0567, "ARG_OF_PERICENTER": 97.0413, "MEAN_ANOMALY": 263.2047, "EPHEMERIS_TYPE": 0, "CLASSIFICATION_TYPE": "U", "NORAD_CAT_ID": 42989, "ELEMENT_SET_NO": 999, "REV_AT_EPOCH": 45363, "BSTAR": 0.00053743, "MEAN_MOTION_DOT": 0.00018773, "MEAN_MOTION_DDOT": 0}, "tle": {"line1": "1 42989U 17068C   25343.82565484  .00018773  00000+0  53743-3 0  9993", "line2": "2 42989  97.4189 114.0567 0010695  97.0413 263.2047 15.35931853453639"}}, "geometry": {"type": "Point", "coordinates": [-57.46592939405553, 47.09514957155183]}}, {"type": "Feature", "properties": {"norad_id": 42990, "name": "SKYSAT-C8", "group": "resource", "lat": 48.24575680104523, "lon": -57.36593517035799, "alt_km": 463.9162973650664, "timestamp": "2025-12-10T05:46:13.454906+00:00", "meta": {"OBJECT_NAME": "SKYSAT-C8", "OBJECT_ID": "2017-068D", "EPOCH": "2025-12-09T19:47:59.351136", "MEAN_MOTION": 15.32817038, "ECCENTRICITY": 0.0001784, "INCLINATION": 97.428, "RA_OF_ASC_NODE": 113.8129, "ARG_OF_PERICENTER": 1.5, "MEAN_ANOMALY": 358.6247, "EPHEMERIS_TYPE": 0, "CLASSIFICATION_TYPE": "U", "NORAD_CAT_ID": 42990, "ELEMENT_SET_NO": 999, "REV_AT_EPOCH": 45326, "BSTAR": 0.00051814, "MEAN_MOTION_DOT": 0.00016361, "MEAN_MOTION_DDOT": 0}, "tle": {"line1": "1 42990U 17068D   25343.82499249  .00016361  00000+0  51814-3 0  9998", "line2": "2 42990  97.4280 113.8129 0001784   1.5000 358.6247 15.32817038453260"}}, "geometry": {"type": "Point", "coordinates": [-57.36593517035799, 48.24575680104523]}}, {"type": "Feature", "properties": {"norad_id": 42991, "name": "SKYSAT-C7", "group": "resource", "lat": -8.263019232033809, "lon": 116.35884909503598, "alt_km": 471.70049362759346, "timestamp": "2025-12-10T05:46:13.454916+00:00", "meta": {"OBJECT_NAME": "SKYSAT-C7", "OBJECT_ID": "2017-068E", "EPOCH": "2025-12-09T18:50:06.610272", "MEAN_MOTION": 15.32221715, "ECCENTRICITY": 0.0007766, "INCLINATION": 97.4288, "RA_OF_ASC_NODE": 114.816, "ARG_OF_PERICENTER": 66.4597, "MEAN_ANOMALY": 293.7459, "EPHEMERIS_TYPE": 0, "CLASSIFICATION_TYPE": "U", "NORAD_CAT_ID": 42991, "ELEMENT_SET_NO": 999, "REV_AT_EPOCH": 45332, "BSTAR": 0.00052659, "MEAN_MOTION_DOT": 0.00016335, "MEAN_MOTION_DDOT": 0}, "tle": {"line1": "1 42991U 17068E   25343.78479873  .00016335  00000+0  52659-3 0  9994", "line2": "2 42991  97.4288 114.8160 0007766  66.4597 293.7459 15.32221715453324"}}, "geometry": {"type": "Point", "coordinates": [116.35884909503598, -8.263019232033809]}}, {"type": "Feature", "properties": {"norad_id": 42992, "name": "SKYSAT-C6", "group": "resource", "lat": 62.659721565779506, "lon": -49.661834456040864, "alt_km": 462.3607173971777, "timestamp": "2025-12-10T05:46:13.454926+00:00", "meta": {"OBJECT_NAME": "SKYSAT-C6", "OBJECT_ID": "2017-068F", "EPOCH": "2025-12-09T19:51:19.157184", "MEAN_MOTION": 15.31392269, "ECCENTRICITY": 0.0005235, "INCLINATION": 97.4322, "RA_OF_ASC_NODE": 115.2996, "ARG_OF_PERICENTER": 90.3922, "MEAN_ANOMALY": 269.7919, "EPHEMERIS_TYPE": 0, "CLASSIFICATION_TYPE": "U", "NORAD_CAT_ID": 42992, "ELEMENT_SET_NO": 999, "REV_AT_EPOCH": 45331, "BSTAR": 0.00051928, "MEAN_MOTION_DOT": 0.00015687, "MEAN_MOTION_DDOT": 0}, "tle": {"line1": "1 42992U 17068F   25343.82730506  .00015687  00000+0  51928-3 0  9990", "line2": "2 42992  97.4322 115.2996 0005235  90.3922 269.7919 15.31392269453318"}}, "geometry": {"type": "Point", "coordinates": [-49.661834456040864, 62.659721565779506]}}, {"type": "Feature", "properties": {"norad_id": 43111, "name": "CARTOSAT-2F", "group": "resource", "lat": -27.622170335327706, "lon": 45.834279702176545, "alt_km": 514.5248859480653, "timestamp": "2025-12-10T05:46:13.454936+00:00", "meta": {"OBJECT_NAME": "CARTOSAT-2F", "OBJECT_ID": "2018-004A", "EPOCH": "2025-12-09T20:24:29.875392", "MEAN_MOTION": 15.19223392, "ECCENTRICITY": 7.08e-05, "INCLINATION": 97.4312, "RA_OF_ASC_NODE": 41.5342, "ARG_OF_PERICENTER": 142.4754, "MEAN_ANOMALY": 217.653, "EPHEMERIS_TYPE": 0, "CLASSIFICATION_TYPE": "U", "NORAD_CAT_ID": 43111, "ELEMENT_SET_NO": 999, "REV_AT_EPOCH": 43858, "BSTAR": 0.00024859, "MEAN_MOTION_DOT": 5.168e-05, "MEAN_MOTION_DDOT": 0}, "tle": {"line1": "1 43111U 18004A   25343.85034578  .00005168  00000+0  24859-3 0  9990", "line2": "2 43111  97.4312  41.5342 0000708 142.4754 217.6530 15.19223392438588"}}, "geometry": {"type": "Point", "coordinates": [45.834279702176545, -27.622170335327706]}}, {"type": "Feature", "properties": {"norad_id": 43259, "name": "GAOFEN-1 02", "group": "resource", "lat": 56.027929229288304, "lon": -125.7994363336, "alt_km": 635.2902291926675, "timestamp": "2025-12-10T05:46:13.454946+00:00", "meta": {"OBJECT_NAME": "GAOFEN-1 02", "OBJECT_ID": "2018-031A", "EPOCH": "2025-12-09T21:04:56.983584", "MEAN_MOTION": 14.76470972, "ECCENTRICITY": 0.0001446, "INCLINATION": 98.0805, "RA_OF_ASC_NODE": 41.6664, "ARG_OF_PERICENTER": 223.0093, "MEAN_ANOMALY": 137.1003, "EPHEMERIS_TYPE": 0, "CLASSIFICATION_TYPE": "U", "NORAD_CAT_ID": 43259, "ELEMENT_SET_NO": 999, "REV_AT_EPOCH": 41476, "BSTAR": 0.00021092, "MEAN_MOTION_DOT": 1.416e-05, "MEAN_MOTION_DDOT": 0}, "tle": {"line1": "1 43259U 18031A   25343.87843731  .00001416  00000+0  21092-3 0  9992", "line2": "2 43259  98.0805  41.6664 0001446 223.0093 137.1003 14.76470972414760"}}, "geometry": {"type": "Point", "coordinates": [-125.7994363336, 56.027929229288304]}}, {"type": "Feature", "properties": {"norad_id": 43260, "name": "GAOFEN-1 03", "group": "resource", "lat": -57.584388187225784, "lon": -151.02206790951894, "alt_km": 647.8547879867565, "timestamp": "2025-12-10T05:46:13.454956+00:00", "meta": {"OBJECT_NAME": "GAOFEN-1 03", "OBJECT_ID": "2018-031B", "EPOCH": "2025-12-09T20:33:39.191040", "MEAN_MOTION": 14.76428318, "ECCENTRICITY": 0.0002178, "INCLINATION": 98.0803, "RA_OF_ASC_NODE": 41.522, "ARG_OF_PERICENTER": 334.9691, "MEAN_ANOMALY": 25.1412, "EPHEMERIS_TYPE": 0, "CLASSIFICATION_TYPE": "U", "NORAD_CAT_ID": 43260, "ELEMENT_SET_NO": 999, "REV_AT_EPOCH": 41475, "BSTAR": 0.0002499, "MEAN_MOTION_DOT": 1.686e-05, "MEAN_MOTION_DDOT": 0}, "tle": {"line1": "1 43260U 18031B   25343.85670360  .00001686  00000+0  24990-3 0  9997", "line2": "2 43260  98.0803  41.5220 0002178 334.9691  25.1412 14.76428318414752"}}, "geometry": {"type": "Point", "coordinates": [-151.02206790951894, -57.584388187225784]}}]}